{
    "links": {
        "self": "http://www.neowsapp.com/rest/v1/neo/3698541?api_key=iIulBulltgU6a56xZRHN4H3l9WmuAYTsLGpBGhQ2"
    },
    "id": "3698541",
    "neo_reference_id": "3698541",
    "name": "(2014 HQ198)",
    "designation": "2014 HQ198",
    "nasa_jpl_url": "http://ssd.jpl.nasa.gov/sbdb.cgi?sstr=3698541",
    "absolute_magnitude_h": 25.8,
    "estimated_diameter": {
        "kilometers": {
            "estimated_diameter_min": 0.0183888672,
            "estimated_diameter_max": 0.0411187571
        },
        "meters": {
            "estimated_diameter_min": 18.388867207,
            "estimated_diameter_max": 41.1187571041
        },
        "miles": {
            "estimated_diameter_min": 0.0114263088,
            "estimated_diameter_max": 0.0255500032
        },
        "feet": {
            "estimated_diameter_min": 60.3309310875,
            "estimated_diameter_max": 134.9040630575
        }
    },
    "is_potentially_hazardous_asteroid": false,
    "close_approach_data": [
        {
            "close_approach_date": "2014-05-16",
            "close_approach_date_full": "2014-May-16 05:29",
            "epoch_date_close_approach": 1400218140000,
            "relative_velocity": {
                "kilometers_per_second": "5.6750353858",
                "kilometers_per_hour": "20430.1273890261",
                "miles_per_hour": "12694.4866545868"
            },
            "miss_distance": {
                "astronomical": "0.0774734452",
                "lunar": "30.1371701828",
                "kilometers": "11589862.383481724",
                "miles": "7201606.5421628312"
            },
            "orbiting_body": "Earth"
        }
    ],
    "orbital_data": {
        "orbit_id": "3",
        "orbit_determination_date": "2017-04-06 08:40:47",
        "first_observation_date": "2014-04-28",
        "last_observation_date": "2014-05-02",
        "data_arc_in_days": 4,
        "observations_used": 26,
        "orbit_uncertainty": "9",
        "minimum_orbit_intersection": ".0732141",
        "jupiter_tisserand_invariant": "3.875",
        "epoch_osculation": "2456777.5",
        "eccentricity": ".4255849574636345",
        "semi_major_axis": "1.862512672162324",
        "inclination": "3.491218672823019",
        "ascending_node_longitude": "16.87120711375748",
        "orbital_period": "928.4259726144591",
        "perihelion_distance": "1.069855295804641",
        "perihelion_argument": "228.3112502750603",
        "aphelion_distance": "2.655170048520007",
        "perihelion_time": "2456802.098687427765",
        "mean_anomaly": "350.4617839922572",
        "mean_motion": ".3877530472205937",
        "equinox": "J2000",
        "orbit_class": {
            "orbit_class_type": "AMO",
            "orbit_class_description": "Near-Earth asteroid orbits similar to that of 1221 Amor",
            "orbit_class_range": "1.017 AU < q (perihelion) < 1.3 AU"
        }
    },
    "is_sentry_object": false
}